[{"OBJECT_NAME":"TEVEL2-8","OBJECT_ID":"2025-052AF","EPOCH":"2026-03-03T15:27:51.382080","MEAN_MOTION":15.28119678,"ECCENTRICITY":0.000748,"INCLINATION":97.4074,"RA_OF_ASC_NODE":318.3034,"ARG_OF_PERICENTER":142.3378,"MEAN_ANOMALY":217.8387,"EPHEMERIS_TYPE":0,"CLASSIFICATION_TYPE":"U","NORAD_CAT_ID":63239,"ELEMENT_SET_NO":999,"REV_AT_EPOCH":5388,"BSTAR":0.0008367,"MEAN_MOTION_DOT":0.00022928,"MEAN_MOTION_DDOT":0},{"OBJECT_NAME":"HADES-ICM","OBJECT_ID":"2025-052BN","EPOCH":"2026-03-03T15:39:07.227072","MEAN_MOTION":15.54914942,"ECCENTRICITY":0.0008396,"INCLINATION":97.397,"RA_OF_ASC_NODE":322.8879,"ARG_OF_PERICENTER":122.9792,"MEAN_ANOMALY":237.227,"EPHEMERIS_TYPE":0,"CLASSIFICATION_TYPE":"U","NORAD_CAT_ID":63492,"ELEMENT_SET_NO":999,"REV_AT_EPOCH":5420,"BSTAR":0.002319,"MEAN_MOTION_DOT":0.00157932,"MEAN_MOTION_DDOT":0}]
